[
    {
        "Altitude(m)": 565044.4352142496,
        "Argument of Periapsis(deg)": 0.026491964442854003,
        "Eccentricity": 0.0,
        "Inclination(deg)": 53.0,
        "Latitude(deg)": -36.38859704385062,
        "Longitude(deg)": 70.34111320037977,
        "Mean Anomaly(deg)": -132.3608285296896,
        "RAAN(deg)": 319.96057347411204,
        "Satellite Name": "Starlink Shell 1 1419",
        "Satellite Number": 1419,
        "Semi-Major Axis(m)": 6931778.249405717,
        "Time(s)": 760
    },
    {
        "Altitude(m)": 565214.4410766094,
        "Argument of Periapsis(deg)": 0.02684054292236524,
        "Eccentricity": 0.0,
        "Inclination(deg)": 53.0,
        "Latitude(deg)": -36.80484991635401,
        "Longitude(deg)": 70.88135012894601,
        "Mean Anomaly(deg)": -131.73399732613294,
        "RAAN(deg)": 319.9600547040346,
        "Satellite Name": "Starlink Shell 1 1419",
        "Satellite Number": 1419,
        "Semi-Major Axis(m)": 6931778.249405717,
        "Time(s)": 770
    },
    {
        "Altitude(m)": 565383.5756040483,
        "Argument of Periapsis(deg)": 0.027189121401876473,
        "Eccentricity": 0.0,
        "Inclination(deg)": 53.0,
        "Latitude(deg)": -37.21818907150971,
        "Longitude(deg)": 71.42787271756485,
        "Mean Anomaly(deg)": -131.10716612257622,
        "RAAN(deg)": 319.9595359339571,
        "Satellite Name": "Starlink Shell 1 1419",
        "Satellite Number": 1419,
        "Semi-Major Axis(m)": 6931778.249405717,
        "Time(s)": 780
    },
    {
        "Altitude(m)": 565551.7735298522,
        "Argument of Periapsis(deg)": 0.02753769988138771,
        "Eccentricity": 0.0,
        "Inclination(deg)": 53.0,
        "Latitude(deg)": -37.628540273240965,
        "Longitude(deg)": 71.98080031438116,
        "Mean Anomaly(deg)": -130.48033491901955,
        "RAAN(deg)": 319.95901716387965,
        "Satellite Name": "Starlink Shell 1 1419",
        "Satellite Number": 1419,
        "Semi-Major Axis(m)": 6931778.249405717,
        "Time(s)": 790
    },
    {
        "Altitude(m)": 565718.9698594159,
        "Argument of Periapsis(deg)": 0.02788627836089895,
        "Eccentricity": 0.0,
        "Inclination(deg)": 53.0,
        "Latitude(deg)": -38.03582761710275,
        "Longitude(deg)": 72.54025192995996,
        "Mean Anomaly(deg)": -129.85350371546278,
        "RAAN(deg)": 319.95849839380213,
        "Satellite Name": "Starlink Shell 1 1419",
        "Satellite Number": 1419,
        "Semi-Major Axis(m)": 6931778.249405717,
        "Time(s)": 800
    },
    {
        "Altitude(m)": 565885.0998991914,
        "Argument of Periapsis(deg)": 0.02823485684041019,
        "Eccentricity": 0.0,
        "Inclination(deg)": 53.0,
        "Latitude(deg)": -38.43997350432535,
        "Longitude(deg)": 73.10634659601355,
        "Mean Anomaly(deg)": -129.22667251190612,
        "RAAN(deg)": 319.9579796237247,
        "Satellite Name": "Starlink Shell 1 1419",
        "Satellite Number": 1419,
        "Semi-Major Axis(m)": 6931778.249405717,
        "Time(s)": 810
    },
    {
        "Altitude(m)": 566050.0992854544,
        "Argument of Periapsis(deg)": 0.028583435319921423,
        "Eccentricity": 0.0,
        "Inclination(deg)": 53.0,
        "Latitude(deg)": -38.84089861735579,
        "Longitude(deg)": 73.67920371173491,
        "Mean Anomaly(deg)": -128.59984130834937,
        "RAAN(deg)": 319.9574608536472,
        "Satellite Name": "Starlink Shell 1 1419",
        "Satellite Number": 1419,
        "Semi-Major Axis(m)": 6931778.249405717,
        "Time(s)": 820
    },
    {
        "Altitude(m)": 566213.904012938,
        "Argument of Periapsis(deg)": 0.028932013799432665,
        "Eccentricity": 0.0,
        "Inclination(deg)": 53.0,
        "Latitude(deg)": -39.23852189710201,
        "Longitude(deg)": 74.25894186426547,
        "Mean Anomaly(deg)": -127.97301010479259,
        "RAAN(deg)": 319.95694208356974,
        "Satellite Name": "Starlink Shell 1 1419",
        "Satellite Number": 1419,
        "Semi-Major Axis(m)": 6931778.249405717,
        "Time(s)": 830
    },
    {
        "Altitude(m)": 566376.4504632462,
        "Argument of Periapsis(deg)": 0.029280592278943897,
        "Eccentricity": 0.0,
        "Inclination(deg)": 53.0,
        "Latitude(deg)": -39.632760522100384,
        "Longitude(deg)": 74.84567914844126,
        "Mean Anomaly(deg)": -127.34617890123596,
        "RAAN(deg)": 319.9564233134923,
        "Satellite Name": "Starlink Shell 1 1419",
        "Satellite Number": 1419,
        "Semi-Major Axis(m)": 6931778.249405717,
        "Time(s)": 840
    },
    {
        "Altitude(m)": 566537.6754331341,
        "Argument of Periapsis(deg)": 0.029629170758455132,
        "Eccentricity": 0.0,
        "Inclination(deg)": 53.0,
        "Latitude(deg)": -40.023529889842635,
        "Longitude(deg)": 75.43953347235421,
        "Mean Anomaly(deg)": -126.7193476976792,
        "RAAN(deg)": 319.9559045434148,
        "Satellite Name": "Starlink Shell 1 1419",
        "Satellite Number": 1419,
        "Semi-Major Axis(m)": 6931778.249405717,
        "Time(s)": 850
    },
    {
        "Altitude(m)": 566697.5161625416,
        "Argument of Periapsis(deg)": 0.02997774923796637,
        "Eccentricity": 0.0,
        "Inclination(deg)": 53.0,
        "Latitude(deg)": -40.4107436005127,
        "Longitude(deg)": 76.04062116717569,
        "Mean Anomaly(deg)": -126.09251649412249,
        "RAAN(deg)": 319.9553857733373,
        "Satellite Name": "Starlink Shell 1 1419",
        "Satellite Number": 1419,
        "Semi-Major Axis(m)": 6931778.249405717,
        "Time(s)": 860
    },
    {
        "Altitude(m)": 566855.9103624268,
        "Argument of Periapsis(deg)": 0.030326327717477602,
        "Eccentricity": 0.0,
        "Inclination(deg)": 53.0,
        "Latitude(deg)": -40.7943134433994,
        "Longitude(deg)": 76.6490581031026,
        "Mean Anomaly(deg)": -125.46568529056577,
        "RAAN(deg)": 319.9548670032599,
        "Satellite Name": "Starlink Shell 1 1419",
        "Satellite Number": 1419,
        "Semi-Major Axis(m)": 6931778.249405717,
        "Time(s)": 870
    },
    {
        "Altitude(m)": 567012.796242383,
        "Argument of Periapsis(deg)": 0.030674906196988847,
        "Eccentricity": 0.0,
        "Inclination(deg)": 53.0,
        "Latitude(deg)": -41.174149386267494,
        "Longitude(deg)": 77.26495826797533,
        "Mean Anomaly(deg)": -124.83885408700911,
        "RAAN(deg)": 319.9543482331824,
        "Satellite Name": "Starlink Shell 1 1419",
        "Satellite Number": 1419,
        "Semi-Major Axis(m)": 6931778.249405717,
        "Time(s)": 880
    },
    {
        "Altitude(m)": 567168.1125380067,
        "Argument of Periapsis(deg)": 0.031023484676500086,
        "Eccentricity": 0.0,
        "Inclination(deg)": 53.0,
        "Latitude(deg)": -41.55015956798353,
        "Longitude(deg)": 77.88843401048278,
        "Mean Anomaly(deg)": -124.21202288345245,
        "RAAN(deg)": 319.95382946310485,
        "Satellite Name": "Starlink Shell 1 1419",
        "Satellite Number": 1419,
        "Semi-Major Axis(m)": 6931778.249405717,
        "Time(s)": 890
    },
    {
        "Altitude(m)": 567321.79853802,
        "Argument of Periapsis(deg)": 0.03137206315601132,
        "Eccentricity": 0.0,
        "Inclination(deg)": 53.0,
        "Latitude(deg)": -41.922250294709904,
        "Longitude(deg)": 78.51959626651306,
        "Mean Anomaly(deg)": -123.58519167989562,
        "RAAN(deg)": 319.95331069302745,
        "Satellite Name": "Starlink Shell 1 1419",
        "Satellite Number": 1419,
        "Semi-Major Axis(m)": 6931778.249405717,
        "Time(s)": 900
    },
    {
        "Altitude(m)": 567473.7941111185,
        "Argument of Periapsis(deg)": 0.03172064163552255,
        "Eccentricity": 0.0,
        "Inclination(deg)": 53.0,
        "Latitude(deg)": -42.290326039995705,
        "Longitude(deg)": 79.15855325535628,
        "Mean Anomaly(deg)": -122.95836047633892,
        "RAAN(deg)": 319.95279192295,
        "Satellite Name": "Starlink Shell 1 1419",
        "Satellite Number": 1419,
        "Semi-Major Axis(m)": 6931778.249405717,
        "Time(s)": 910
    },
    {
        "Altitude(m)": 567624.0397325716,
        "Argument of Periapsis(deg)": 0.0320692201150338,
        "Eccentricity": 0.0,
        "Inclination(deg)": 53.0,
        "Latitude(deg)": -42.65428944910705,
        "Longitude(deg)": 79.80541067114355,
        "Mean Anomaly(deg)": -122.33152927278223,
        "RAAN(deg)": 319.95227315287246,
        "Satellite Name": "Starlink Shell 1 1419",
        "Satellite Number": 1419,
        "Semi-Major Axis(m)": 6931778.249405717,
        "Time(s)": 920
    },
    {
        "Altitude(m)": 567772.4765105153,
        "Argument of Periapsis(deg)": 0.032417798594545036,
        "Eccentricity": 0.0,
        "Inclination(deg)": 53.0,
        "Latitude(deg)": -43.01404134795335,
        "Longitude(deg)": 80.46027185634964,
        "Mean Anomaly(deg)": -121.70469806922553,
        "RAAN(deg)": 319.95175438279506,
        "Satellite Name": "Starlink Shell 1 1419",
        "Satellite Number": 1419,
        "Semi-Major Axis(m)": 6931778.249405717,
        "Time(s)": 930
    },
    {
        "Altitude(m)": 567919.0462119482,
        "Argument of Periapsis(deg)": 0.03276637707405627,
        "Eccentricity": 0.0,
        "Inclination(deg)": 53.0,
        "Latitude(deg)": -43.369480756982135,
        "Longitude(deg)": 81.12323644427963,
        "Mean Anomaly(deg)": -121.07786686566877,
        "RAAN(deg)": 319.95123561271754,
        "Satellite Name": "Starlink Shell 1 1419",
        "Satellite Number": 1419,
        "Semi-Major Axis(m)": 6931778.249405717,
        "Time(s)": 940
    }
]